[{"OBJECT_NAME":"STARLINK-3394","OBJECT_ID":"2022-005Q","EPOCH":"2026-03-09T21:11:35.197728","MEAN_MOTION":15.08841259,"ECCENTRICITY":0.00013467,"INCLINATION":53.2169,"RA_OF_ASC_NODE":288.2551,"ARG_OF_PERICENTER":89.718,"MEAN_ANOMALY":270.3966,"EPHEMERIS_TYPE":0,"CLASSIFICATION_TYPE":"U","NORAD_CAT_ID":51118,"ELEMENT_SET_NO":999,"REV_AT_EPOCH":22890,"BSTAR":3.2003302e-5,"MEAN_MOTION_DOT":2.21e-6,"MEAN_MOTION_DDOT":0},{"OBJECT_NAME":"YUNYAO-1 47","OBJECT_ID":"2025-059E","EPOCH":"2026-03-09T22:46:15.708288","MEAN_MOTION":15.10508558,"ECCENTRICITY":0.00172664,"INCLINATION":97.6066,"RA_OF_ASC_NODE":250.9227,"ARG_OF_PERICENTER":135.6694,"MEAN_ANOMALY":224.5922,"EPHEMERIS_TYPE":0,"CLASSIFICATION_TYPE":"U","NORAD_CAT_ID":63348,"ELEMENT_SET_NO":999,"REV_AT_EPOCH":5331,"BSTAR":0.00029014568,"MEAN_MOTION_DOT":4.732e-5,"MEAN_MOTION_DDOT":0}]
